ION SCV-004             
1 50993U 22002K   26068.68892644  .00006538  00000+0  23198-3 0  9998
2 50993  97.2961 128.2294 0007216   1.6783 358.4480 15.29369331230088
STARLINK-35672          
1 66394U 25257Q   26068.69904123  .00025593  00000+0  87337-3 0  9999
2 66394  53.1577 217.0685 0000792  71.3632 288.7455 15.30195738 19738
