[{"OBJECT_NAME":"ION SCV-004","OBJECT_ID":"2022-002K","EPOCH":"2026-03-09T16:32:03.244416","MEAN_MOTION":15.29369331,"ECCENTRICITY":0.00072157,"INCLINATION":97.2961,"RA_OF_ASC_NODE":128.2294,"ARG_OF_PERICENTER":1.6783,"MEAN_ANOMALY":358.448,"EPHEMERIS_TYPE":0,"CLASSIFICATION_TYPE":"U","NORAD_CAT_ID":50993,"ELEMENT_SET_NO":999,"REV_AT_EPOCH":23008,"BSTAR":0.00023198467,"MEAN_MOTION_DOT":6.538e-5,"MEAN_MOTION_DDOT":0},{"OBJECT_NAME":"STARLINK-35672","OBJECT_ID":"2025-257Q","EPOCH":"2026-03-09T16:46:37.162272","MEAN_MOTION":15.30195738,"ECCENTRICITY":7.92e-5,"INCLINATION":53.1577,"RA_OF_ASC_NODE":217.0685,"ARG_OF_PERICENTER":71.3632,"MEAN_ANOMALY":288.7455,"EPHEMERIS_TYPE":0,"CLASSIFICATION_TYPE":"U","NORAD_CAT_ID":66394,"ELEMENT_SET_NO":999,"REV_AT_EPOCH":1973,"BSTAR":0.00087337449,"MEAN_MOTION_DOT":0.00025593,"MEAN_MOTION_DDOT":0}]
